    PK15PM9D  2034 12 14.8563  4.863560  0.325159  352.6877  342.7484    2.0203  20250501  11.5  2.0  P/2015 PD229 (Cameron-ISON)                              MPEC 2022-K19
    PK15Q020  2015 09 13.1613  1.820993  0.752193  244.6492  228.5317  146.5512  20250501  15.5  4.0  P/2015 Q2 (Pimentel)                                     MPC 96867
    PK15R010  2029 10  7.5855  2.160024  0.632938  300.5160   48.3895   22.6822  20250501  14.0  4.0  P/2015 R1 (PANSTARRS)                                    MPC 98562
    PK15R020  2024 12 15.7148  2.454955  0.452004  149.8740  168.6021   15.4827  20250501  14.5  4.0  P/2015 R2 (PANSTARRS)                                    MPC 95734
    PK15T19O  2025 11 23.5187  2.911430  0.359592   89.3377  321.6617    6.5056  20250501  14.0  4.0  P/2015 TO19 (Lemmon-PANSTARRS)                           MPC102953
    PK15TK0P  2016 11  3.2970  3.359911  0.537360   82.5876    6.9113    8.7786  20250501  11.0  4.0  P/2015 TP200 (LINEAR)                                    MPC110080
    PK15W020  2015 10  8.5203  2.660234  0.635259  117.7101  294.0741   11.6204  20250501  13.0  4.0  P/2015 W2 (Catalina)                                     MPC101098
    PK15X030  2026 10 23.6147  2.799453  0.439868  306.9722   77.2553   24.4223  20250501  15.0  4.0  P/2015 X3 (PANSTARRS)                                    MPEC 2023-J29
    PK15X060  2025 05 11.4705  2.273718  0.174054  329.7391  106.9309    4.5657  20250501  16.0  4.0  P/2015 X6 (PANSTARRS)                                    MPC115881
    PK16A030  2017 04 26.4708  4.822550  0.387043  340.8004  187.1332    8.5208  20250501  10.0  4.0  P/2016 A3 (PANSTARRS)                                    MPEC 2022-OB6
    PK16A070  2027 05 28.0170  2.179571  0.569662  352.7178  220.7646   16.3212  20250501  16.0  4.0  P/2016 A7 (PANSTARRS)                                    MPC102098
    PK16G010  2025 05 16.1440  2.041076  0.210049  111.0871  204.0110   10.9699  20250501  14.0  4.0  P/2016 G1 (PANSTARRS)                                    MPEC 2021-P47
    CK16J020  2016 04 12.8346  1.496277  1.000376  318.2733  186.2867  130.3707  20250501  17.0  4.0  C/2016 J2 (Denneau)                                      MPEC 2024-C04
    PK16P010  2027 03  5.8086  2.283037  0.287409  271.0006  319.0527   24.4349  20250501  15.0  4.0  P/2016 P1 (PANSTARRS)                                    MPC102099
    PK16P050  2023 05 22.5029  4.431151  0.057285   33.8996  185.3782    7.0378  20250501  13.2  4.0  P/2016 P5 (COIAS)                                        MPEC 2025-F40
    CK16Q020  2021 05 11.7082  7.079931  1.002490   84.5301  322.3483  109.3284  20250501   6.0  4.0  C/2016 Q2 (PANSTARRS)                                    MPEC 2024-H50
    PK16R040  2028 11 19.4541  2.803405  0.474775  174.1036  168.2681   10.8642  20250501  12.5  4.0  P/2016 R4 (Gibbs)                                        MPEC 2022-K19
    PK16S010  2017 03 20.4566  2.380574  0.712023  273.1619  227.6475   94.7328  20250501  12.0  4.0  P/2016 S1 (PANSTARRS)                                    MPC105543
    PK16W48M  2017 02 27.3775  1.764435  0.784130   36.1807   59.9468  117.6211  20250501  15.0  4.0  P/2016 WM48 (Lemmon)                                     MPC106345
    CK16X010  2019 04 30.6245  7.559990  0.997118  224.6058  256.3008   26.4696  20250501   6.0  4.0  C/2016 X1 (Lemmon)                                       MPEC 2021-P47
    CK17B030  2019 01 30.1726  3.933361  0.998864  284.7686    2.2416   54.2197  20250501   6.0  4.0  C/2017 B3 (LINEAR)                                       MPEC 2022-OB6
    PK17B040  2017 01  5.8178  2.800894  0.364952   11.0197  121.4578   20.0584            14.5  4.0  P/2017 B4 (PANSTARRS)                                    MPC103847
    PK17D010  2027 01 30.9384  2.711046  0.437814    8.0759   82.1935   20.7714  20250501  14.0  4.0  P/2017 D1 (Fuls)                                         MPEC 2022-OB6
    PK17D040  2016 09 10.5310  2.786058  0.630595  212.1309  264.9132   10.5614  20250501  13.0  4.0  P/2017 D4 (PANSTARRS)                                    MPEC 2022-OB6
    PK17F36L  2025 08  8.4873  2.830988  0.032691   90.1756  313.4525   15.6871  20250501  14.7  4.0  P/2017 FL36 (PANSTARRS)                                  MPEC 2025-H86
    PK17G010  2016 04 20.8745  2.511400  0.650826  225.2512  247.1380    5.1552  20250501  13.5  4.0  P/2017 G1 (PANSTARRS)                                    MPEC 2024-C04
    PK17G020  2017 06 10.2631  2.821936  0.648838  105.2121   79.8973   47.9682  20250501  13.0  4.0  P/2017 G2 (PANSTARRS)                                    MPC108595
    CK17K020  2022 12 18.6912  1.799756  0.999130  236.1794   88.2218   87.6446  20250501   1.5  4.0  C/2017 K2 (PANSTARRS)                                    MPEC 2025-J08
    PK17K030  2030 07 31.4407  2.351295  0.579121  253.2889  354.1987    4.2724  20250501  14.5  4.0  P/2017 K3 (Gasparovic)                                   MPEC 2021-N06
    CK17K050  2020 03 25.6250  7.678198  1.003024  171.9473  102.4565   82.2789  20250501   5.0  4.0  C/2017 K5 (PANSTARRS)                                    MPEC 2021-P47
    CK17M040  2019 01 17.6674  3.236699  1.000233  167.4208   66.0142  105.6262  20250501   6.0  4.0  C/2017 M4 (ATLAS)                                        MPEC 2022-OB6
    PK17P010  2018 06 19.5167  5.472896  0.309076  122.7840  221.4692    7.6880  20250501  10.0  4.0  P/2017 P1 (PANSTARRS)                                    MPC114599
    PK17S080  2027 05  4.4931  1.691853  0.391127  254.9165  191.5105   29.8401  20250501  16.0  4.0  P/2017 S8 (PANSTARRS)                                    MPEC 2022-OB6
    CK17T020  2020 05  5.9733  1.604274  0.998988   92.7814   64.4397   57.2861  20250501   5.0  4.0  C/2017 T2 (PANSTARRS)                                    MPEC 2024-A43
    PK17T13W  2018 06 23.7225  2.064978  0.710678  120.0114  322.1282   44.8821  20250501  15.0  2.0  P/2017 TW13 (Lemmon)                                     MPC115882
    PK17U030  2030 03 15.6140  4.423724  0.100819  296.4353  165.0585   15.9218  20250501  11.0  4.0  P/2017 U3 (PANSTARRS)                                    MPEC 2022-K19
    CK17U070  2019 09 16.2428  6.420046  1.002746  326.4244  276.3197  142.6391  20250501   8.3  2.0  C/2017 U7 (PANSTARRS)                                    MPEC 2023-A50
    PK17W030  2018 02 26.5944  3.854603  0.507008  327.7702  210.0741   18.1870  20250501  10.5  4.0  P/2017 W3 (Gibbs)                                        MPC114601
    CK17Y020  2020 11  4.9416  4.622039  1.001122  147.8164   66.0310  128.4482  20250501  15.0  4.0  C/2017 Y2 (PANSTARRS)                                    MPEC 2024-DC6
    PK17Y030  2018 02  6.3843  1.277397  0.869590   67.3388  154.0141   27.6276  20250501  16.5  4.0  P/2017 Y3 (Leonard)                                      MPC111770
    CK18A030  2019 01  8.7128  3.292781  0.990463   86.5036  194.3536  139.6045  20250501   8.5  4.0  C/2018 A3 (ATLAS)                                        MPEC 2021-P47
    PK18A050  2031 01 31.2174  2.674464  0.524489  359.5500   87.7836   23.6241  20250501  15.0  4.0  P/2018 A5 (PANSTARRS)                                    MPC109147
    CK18A060  2019 07 10.2818  3.017050  0.798832  264.2714  340.4542   77.1558  20250501   9.0  4.0  C/2018 A6 (Gibbs)                                        MPEC 2024-JU4
    PK18C010  2031 07 31.0640  2.640343  0.532645  235.7973  270.2020    5.1018  20250501  13.5  4.0  P/2018 C1 (Lemmon-Read)                                  MPC114601
    CK18D04O  2019 08 17.0647  2.421455  0.905110  176.4157  251.3935  160.4459  20250501  11.0  4.0  C/2018 DO4 (Lemmon)                                      MPEC 2022-M88
    CK18F010  2018 12 10.1537  2.991750  0.986247   71.4326  177.3188   46.1693  20250501  11.5  4.0  C/2018 F1 (Grauer)                                       MPEC 2021-R75
    CK18F040  2019 11 30.9370  3.448503  0.998059  263.1966   26.5362   78.1330  20250501  11.0  6.0  C/2018 F4 (PANSTARRS)                                    MPEC 2023-A50
    CK18F04a  2019 11 30.9250  3.448371  0.998006  263.1934   26.5364   78.1332  20250501  11.0  6.0  C/2018 F4-A                                              MPEC 2021-Y10
    CK18F04b  2019 11 30.8618  3.448188  0.998095  263.1791   26.5359   78.1342  20250501  11.0  6.0  C/2018 F4-B                                              MPEC 2023-D41
    PK18H020  2027 03 18.2997  2.028073  0.539896  119.2139   67.9840    7.4177  20250501  16.6  2.0  P/2018 H2 (PANSTARRS)                                    MPC114602
    CK18K03J  2019 09  8.8327  3.617602  0.994857  217.5385   91.6950  136.6210  20250501  12.2  2.0  C/2018 KJ3 (Lemmon)                                      MPEC 2021-R75
    PK18L010  2025 11  6.1294  1.897451  0.481344   17.9542  268.5822   10.5748  20250501  15.7  4.0  P/2018 L1 (PANSTARRS)                                    MPC xxxxx
    CK18L020  2018 11 29.6140  1.721506  0.992719   56.3457  242.9886   67.2139  20250501  10.0  4.0  C/2018 L2 (ATLAS)                                        MPEC 2021-P47
    PK18L040  2029 07 28.7714  1.691159  0.658259  140.5073  145.2228   26.5931  20250501  17.5  4.0  P/2018 L4 (PANSTARRS)                                    MPC114603
    CK18N020  2019 11 12.0786  3.135311  1.001999   25.3216   24.5244   77.5009  20250501   6.0  4.0  C/2018 N2 (ASASSN)                                       MPEC 2022-YN2
    PK18P040  2018 11  7.1719  3.688599  0.449101    8.5162  353.1580   23.0795  20250501  12.0  4.0  P/2018 P4 (PANSTARRS)                                    MPC114603
    CK18P050  2019 02 25.8505  4.603156  0.641647  132.0359  216.2689    7.2464  20250501  11.0  4.0  C/2018 P5 (PANSTARRS)                                    MPEC 2021-P47
    CK18R030  2019 06  8.0270  1.284115  0.999280  112.7992  324.3711   69.6887  20250501   9.5  4.0  C/2018 R3 (Lemmon)                                       MPC118841
